[{
    "OBJECT_NAME": "OAO 2",
    "OBJECT_ID": "1968-110A",
    "EPOCH": "2024-09-01T02:23:30.350976",
    "MEAN_MOTION": 14.46676621,
    "ECCENTRICITY": 0.0004852,
    "INCLINATION": 34.9924,
    "RA_OF_ASC_NODE": 120.4364,
    "ARG_OF_PERICENTER": 68.334,
    "MEAN_ANOMALY": 291.7867,
    "EPHEMERIS_TYPE": 0,
    "CLASSIFICATION_TYPE": "U",
    "NORAD_CAT_ID": 3597,
    "ELEMENT_SET_NO": 999,
    "REV_AT_EPOCH": 93920,
    "BSTAR": 0.0002811,
    "MEAN_MOTION_DOT": 1.01e-5,
    "MEAN_MOTION_DDOT": 0
}]
