3597,OAO 2,1968,99.54,-1.0,UNK,34.99,Inactive,0,LEO,USA,USA,Unknown,Unknown,Unknown,1 03597U 68110A   24245.09965684  .00001010  00000+0  28110-3 0  9990,2 03597  34.9924 120.4364 0004852  68.3340 291.7867 14.46676621939206,14.46676621,0.0004852,LEO
